[{"OBJECT_NAME":"STARLINK-34634","OBJECT_ID":"2025-167B","EPOCH":"2026-03-09T07:04:02.665056","MEAN_MOTION":15.30199395,"ECCENTRICITY":0.00010469,"INCLINATION":53.1605,"RA_OF_ASC_NODE":26.1097,"ARG_OF_PERICENTER":89.7103,"MEAN_ANOMALY":270.4017,"EPHEMERIS_TYPE":0,"CLASSIFICATION_TYPE":"U","NORAD_CAT_ID":65079,"ELEMENT_SET_NO":999,"REV_AT_EPOCH":3345,"BSTAR":0.0012923783,"MEAN_MOTION_DOT":0.00038113,"MEAN_MOTION_DDOT":0},{"OBJECT_NAME":"CZ-2F DEB","OBJECT_ID":"2026-024G","EPOCH":"2026-03-09T22:26:56.614272","MEAN_MOTION":15.01116214,"ECCENTRICITY":0.03207922,"INCLINATION":49.8328,"RA_OF_ASC_NODE":21.451,"ARG_OF_PERICENTER":268.4479,"MEAN_ANOMALY":87.9702,"EPHEMERIS_TYPE":0,"CLASSIFICATION_TYPE":"U","NORAD_CAT_ID":67720,"ELEMENT_SET_NO":999,"REV_AT_EPOCH":459,"BSTAR":0.0038278463,"MEAN_MOTION_DOT":0.00157764,"MEAN_MOTION_DDOT":0}]
